ONEWEB-0589             
1 54655U 22166P   26148.21296314  .00000107  00000+0  22700-3 0  9992
2 54655  87.9253 247.9559 0002820  94.0157 266.1299 13.21827591168908
ONEWEB-0590             
1 54656U 22166Q   26147.78389459  .00000008  00000+0 -11695-4 0  9990
2 54656  87.9263 248.0292 0002245 110.9925 249.1449 13.21825150168837
ONEWEB-0591             
1 54657U 22166R   26147.79580781 -.00000038  00000+0 -12326-3 0  9998
2 54657  87.9252 248.0435 0002027 101.8068 258.3294 13.21824600168862
ONEWEB-0592             
1 54658U 22166S   26148.17765451  .00000006  00000+0 -17451-4 0  9990
2 54658  87.9262 247.9438 0001990 100.2612 259.8747 13.21824880168792
ONEWEB-0593             
1 54659U 22166T   26148.19951326  .00000021  00000+0  18286-4 0  9994
2 54659  87.9255 247.9526 0002039  96.0336 264.1030 13.21826863168903
ONEWEB-0594             
1 54660U 22166U   26148.21968951  .00000092  00000+0  19142-3 0  9990
2 54660  87.9253 247.9652 0001893 101.0402 259.0945 13.21827750168927
ONEWEB-0595             
1 54661U 22166V   26148.19615264  .00000029  00000+0  37654-4 0  9993
2 54661  87.9262 247.9490 0001863 106.7062 253.4277 13.21826081168897
ONEWEB-0596             
1 54662U 22166W   26147.71674580 -.00000007  00000+0 -48174-4 0  9994
2 54662  87.9255 248.0571 0001930 102.9223 257.2127 13.21825222168830
ONEWEB-0597             
1 54663U 22166X   26148.22811519  .00000066  00000+0  12914-3 0  9992
2 54663  87.9255 247.9587 0002076  97.6968 262.4401 13.21825386168906
ONEWEB-0600             
1 54664U 22166Y   26148.20960191  .00000082  00000+0  16622-3 0  9990
2 54664  87.9254 247.9539 0001926  94.4725 265.6629 13.21827615168872
ONEWEB-0601             
1 54665U 22166Z   26147.74700573 -.00000050  00000+0 -15163-3 0  9991
2 54665  87.9252 248.0620 0002246  97.3426 262.7964 13.21827781169000
ONEWEB-0602             
1 54666U 22166AA  26147.78822385  .00000040  00000+0  64816-4 0  9999
2 54666  87.9253 248.0600 0001912  91.9910 268.1443 13.21824239168856
ONEWEB-0603             
1 54667U 22166AB  26147.79412435  .00000003  00000+0 -24236-4 0  9994
2 54667  87.9264 248.0137 0002026  97.2134 262.9230 13.21824889168787
ONEWEB-0604             
1 54668U 22166AC  26147.78235229  .00000025  00000+0  28281-4 0  9995
2 54668  87.9264 248.0315 0001901 101.1272 259.0076 13.21825060168748
ONEWEB-0605             
1 54669U 22166AD  26147.77561494 -.00000030  00000+0 -10304-3 0  9995
2 54669  87.9255 248.0480 0002622 103.1294 257.0133 13.21823762168816
ONEWEB-0606             
1 54670U 22166AE  26148.17596935  .00000091  00000+0  18794-3 0  9996
2 54670  87.9255 247.9810 0001842 102.8795 257.2545 13.21826012168920
ONEWEB-0607             
1 54671U 22166AF  26148.21800961  .00000099  00000+0  20904-3 0  9993
2 54671  87.9261 247.9419 0002003  95.4787 264.6575 13.21827441168901
ONEWEB-0608             
1 54672U 22166AG  26148.22475549  .00000100  00000+0  21060-3 0  9992
2 54672  87.9265 247.9368 0002505  96.6291 263.5128 13.21826661168915
ONEWEB-0610             
1 54673U 22166AH  26147.75037927 -.00000034  00000+0 -11323-3 0  9993
2 54673  87.9254 248.0477 0002525  90.5872 269.5551 13.21826786168753
ONEWEB-0611             
1 54674U 22166AJ  26148.19782875  .00000051  00000+0  91092-4 0  9991
2 54674  87.9255 247.9548 0001903 103.3006 256.8340 13.21826892168802
ONEWEB-0612             
1 54675U 22166AK  26148.21127367  .00000081  00000+0  16487-3 0  9991
2 54675  87.9265 247.9451 0002172  97.6996 262.4384 13.21828099168799
ONEWEB-0615             
1 54676U 22166AL  26148.19110909  .00000059  00000+0  11112-3 0  9998
2 54676  87.9254 247.9655 0001718 101.8358 258.2969 13.21825142168809
ONEWEB-0655             
1 54677U 22166AM  26147.78907858  .00000034  00000+0  51545-4 0  9998
2 54677  87.9254 248.0471 0001975  92.4493 267.6867 13.21825009168744
ONEWEB-0659             
1 54678U 22166AN  26147.80588552 -.00000089  00000+0 -24715-3 0  9998
2 54678  87.9253 248.0438 0001986 102.5612 257.5745 13.21826733168833
ONEWEB-0685             
1 54679U 22166AP  26148.18460035  .00000060  00000+0  11369-3 0  9994
2 54679  87.9252 247.9609 0002070  91.2599 268.8772 13.21819181168771
ONEWEB-0712             
1 54680U 22166AQ  26148.22480471  .00000141  00000+0  33640-3 0  9993
2 54680  87.9108 232.7376 0001896  85.6244 274.5103 13.16593471169436
ONEWEB-0714             
1 54681U 22166AR  26148.18941642  .00000034  00000+0  49684-4 0  9998
2 54681  87.9254 247.9572 0001954  93.5640 266.5718 13.21827463168897
ONEWEB-0532             
1 55140U 23004A   26148.13805346  .00000108  00000+0  24408-3 0  9994
2 55140  87.9151   9.8526 0002042  92.7594 267.3771 13.17651145164943
ONEWEB-0533             
1 55141U 23004B   26148.10209051  .00000452  00000+0  12221-2 0  9994
2 55141  87.8960 354.6652 0001947  83.0485 277.0865 13.12441917165422
ONEWEB-0541             
1 55142U 23004C   26148.11626412  .00000471  00000+0  12928-2 0  9995
2 55142  87.8914  25.0501 0001701  87.3139 272.8183 13.11415947163310
ONEWEB-0543             
1 55143U 23004D   26148.05660576  .00000001  00000+0 -29935-4 0  9996
2 55143  87.9157 339.4774 0001704  82.9476 277.1850 13.18688769167047
ONEWEB-0544             
1 55144U 23004E   26148.04985360 -.00000016  00000+0 -74090-4 0  9996
2 55144  87.9158 339.4786 0001607  89.2833 270.8483 13.18685812167049
ONEWEB-0560             
1 55145U 23004F   26148.04311226 -.00000009  00000+0 -56472-4 0  9997
2 55145  87.9159 339.4691 0001548  86.5296 273.6013 13.18685485167050
ONEWEB-0565             
1 55146U 23004G   26148.03635998  .00000003  00000+0 -26167-4 0  9993
2 55146  87.9149 339.5001 0001625 102.0517 258.0797 13.18686382167044
ONEWEB-0567             
1 55147U 23004H   26148.02961994  .00000038  00000+0  64095-4 0  9990
2 55147  87.9159 339.4840 0001523  97.1622 262.9683 13.18685784167047
ONEWEB-0569             
1 55148U 23004J   26148.04957889 -.00000288  00000+0 -82241-3 0  9992
2 55148  87.8950 324.2299 0000877  96.4988 263.6241 13.13468407167532
ONEWEB-0570             
1 55149U 23004K   26148.02118801  .00000062  00000+0  12428-3 0  9992
2 55149  87.9158 339.4837 0002047 100.0318 260.1045 13.18688276167032
ONEWEB-0571             
1 55150U 23004L   26148.09031916  .00000056  00000+0  10998-3 0  9995
2 55150  87.9157 339.4692 0001179 131.2321 228.8913 13.18688415167059
ONEWEB-0572             
1 55151U 23004M   26148.16843130  .00000072  00000+0  15130-3 0  9994
2 55151  87.9150   9.8471 0001680  90.0731 270.0593 13.17651764164843
ONEWEB-0573             
1 55152U 23004N   26148.08357745 -.00000048  00000+0 -15538-3 0  9995
2 55152  87.9159 339.4717 0001374 117.3640 242.7632 13.18687578167048
ONEWEB-0588             
1 55153U 23004P   26148.07682823 -.00000032  00000+0 -11392-3 0  9990
2 55153  87.9158 339.4737 0002037 103.5806 256.5553 13.18687915167048
ONEWEB-0598             
1 55154U 23004Q   26148.17050774  .00000223  00000+0  59285-3 0  9999
2 55154  87.8906  25.0521 0001089  90.2364 269.8888 13.11418542163275
ONEWEB-0599             
1 55155U 23004R   26148.12961527  .00000070  00000+0  14731-3 0  9999
2 55155  87.9149   9.8536 0001649  78.9740 281.1577 13.17651497164845
ONEWEB-0614             
1 55156U 23004S   26148.16541779  .00000014  00000+0  33124-5 0  9994
2 55156  87.8908  25.0618 0002015  85.2732 274.8626 13.11418802163218
ONEWEB-0616             
1 55157U 23004T   26148.17182471  .00000006  00000+0 -18651-4 0  9995
2 55157  87.9151   9.8484 0001727  53.9985 306.1306 13.17649884165063
ONEWEB-0617             
1 55158U 23004U   26148.15354443 -.00000383  00000+0 -11175-2 0  9995
2 55158  87.8913  25.0541 0002096  91.5859 268.5509 13.11417479163231
ONEWEB-0618             
1 55159U 23004V   26148.15168096  .00004832  00000+0  27173-3 0  9990
2 55159  86.9111 185.7669 0013069  21.3606 338.8177 15.12969215179232
ONEWEB-0619             
1 55160U 23004W   26148.05201506  .00000019  00000+0  16948-4 0  9997
2 55160  87.9160   9.8512 0002212  79.9295 280.2086 13.17648988164948
ONEWEB-0620             
1 55161U 23004X   26148.14845471 -.00000495  00000+0 -14321-2 0  9994
2 55161  87.8908  25.0648 0001621  89.6782 270.4531 13.11417892163206
ONEWEB-0621             
1 55162U 23004Y   26148.17559330  .00000586  00000+0  16164-2 0  9990
2 55162  87.8914  25.0467 0002015  84.2712 275.8645 13.11417623163189
ONEWEB-0622             
1 55163U 23004Z   26148.18068325  .00000581  00000+0  16021-2 0  9998
2 55163  87.8916  25.0476 0002214 100.9103 259.2274 13.11416679163176
ONEWEB-0623             
1 55164U 23004AA  26148.12287444  .00000035  00000+0  56154-4 0  9995
2 55164  87.9148   9.8699 0002579  91.2258 268.9169 13.17647978164949
ONEWEB-0624             
1 55165U 23004AB  26148.07570911 -.00000132  00000+0 -39836-3 0  9991
2 55165  87.8954 354.5888 0001870  88.1668 271.9675 13.12928649165430
ONEWEB-0625             
1 55166U 23004AC  26148.11276465 -.00000002  00000+0 -38300-4 0  9996
2 55166  87.9151   9.8671 0001828  79.6278 280.5059 13.17649498164939
ONEWEB-0626             
1 55167U 23004AD  26148.10261980 -.00000164  00000+0 -45534-3 0  9997
2 55167  87.9150   9.8687 0001448  93.1126 267.0171 13.17648802164930
ONEWEB-0627             
1 55168U 23004AE  26148.16674618  .00000004  00000+0 -23675-4 0  9995
2 55168  87.9150   9.8560 0002303  88.7884 271.3511 13.17648485164947
ONEWEB-0628             
1 55169U 23004AF  26148.12595067 -.00000155  00000+0 -46550-3 0  9996
2 55169  87.8954 354.6430 0002459  89.3191 270.8219 13.12442089165404
ONEWEB-0629             
1 55170U 23004AG  26148.14228981  .00000054  00000+0  10714-3 0  9997
2 55170  87.9148   9.8576 0002077  79.9545 280.1821 13.17650191164947
ONEWEB-0631             
1 55171U 23004AH  26148.07008618 -.00000019  00000+0 -80393-4 0  9997
2 55171  87.9167 339.4391 0001769 105.4858 254.6469 13.18687786167022
